0 FALCON 9 DEB
1 39275U 13055K   13272.73695910  .00000264 -82861-6  00000+0 0    12
2 39275 081.0349 314.8767 0781178 151.0595 331.8537 14.15533443    11
0 FALCON 9 DEB
1 39275U 13055K   13273.27919535  .00000674 -82354-6  64341-5 0    32
2 39275 080.9371 314.5250 0780001 149.5176 215.4328 14.15754672    91
0 FALCON 9 DEB
1 39275U 13055K   13273.27926685  .00000264 -82884-6  00000+0 0    24
2 39275 081.0250 314.3354 0805542 152.3853 213.5267 14.15731499    97
0 FALCON 9 DEB
1 39275U 13055K   13278.09181363  .21462956  00000-0  66817+0 0    41
2 39275 080.9588 309.8014 0176000 161.8413 198.9461 15.12873564   773
